[{"OBJECT_NAME":"STARLINK-2088","OBJECT_ID":"2021-005Y","EPOCH":"2026-03-01T11:15:36.235296","MEAN_MOTION":15.06403953,"ECCENTRICITY":0.000129,"INCLINATION":53.0552,"RA_OF_ASC_NODE":98.5233,"ARG_OF_PERICENTER":92.3208,"MEAN_ANOMALY":267.7929,"EPHEMERIS_TYPE":0,"CLASSIFICATION_TYPE":"U","NORAD_CAT_ID":47371,"ELEMENT_SET_NO":999,"REV_AT_EPOCH":28180,"BSTAR":5.6956e-5,"MEAN_MOTION_DOT":5.67e-6,"MEAN_MOTION_DDOT":0},{"OBJECT_NAME":"STARLINK-2092","OBJECT_ID":"2021-005AA","EPOCH":"2026-03-01T07:59:12.249888","MEAN_MOTION":15.06400905,"ECCENTRICITY":0.0001368,"INCLINATION":53.0548,"RA_OF_ASC_NODE":99.1346,"ARG_OF_PERICENTER":90.4198,"MEAN_ANOMALY":269.6948,"EPHEMERIS_TYPE":0,"CLASSIFICATION_TYPE":"U","NORAD_CAT_ID":47373,"ELEMENT_SET_NO":999,"REV_AT_EPOCH":28178,"BSTAR":-8.0382e-5,"MEAN_MOTION_DOT":-1.479e-5,"MEAN_MOTION_DDOT":0},{"OBJECT_NAME":"STARLINK-2093","OBJECT_ID":"2021-005AB","EPOCH":"2026-03-01T11:18:56.839680","MEAN_MOTION":15.62731817,"ECCENTRICITY":0.0002662,"INCLINATION":53.0524,"RA_OF_ASC_NODE":85.6101,"ARG_OF_PERICENTER":73.6571,"MEAN_ANOMALY":286.4735,"EPHEMERIS_TYPE":0,"CLASSIFICATION_TYPE":"U","NORAD_CAT_ID":47374,"ELEMENT_SET_NO":999,"REV_AT_EPOCH":28198,"BSTAR":0.0017034,"MEAN_MOTION_DOT":0.00158389,"MEAN_MOTION_DDOT":0},{"OBJECT_NAME":"STARLINK-2094","OBJECT_ID":"2021-005AC","EPOCH":"2026-03-01T11:47:27.697056","MEAN_MOTION":15.06400723,"ECCENTRICITY":0.0001441,"INCLINATION":53.0549,"RA_OF_ASC_NODE":98.4244,"ARG_OF_PERICENTER":92.5249,"MEAN_ANOMALY":267.5905,"EPHEMERIS_TYPE":0,"CLASSIFICATION_TYPE":"U","NORAD_CAT_ID":47375,"ELEMENT_SET_NO":999,"REV_AT_EPOCH":28180,"BSTAR":0.00010347,"MEAN_MOTION_DOT":1.26e-5,"MEAN_MOTION_DDOT":0},{"OBJECT_NAME":"STARLINK-2096","OBJECT_ID":"2021-005AD","EPOCH":"2026-03-01T11:52:45.792480","MEAN_MOTION":15.06401923,"ECCENTRICITY":0.0001614,"INCLINATION":53.0546,"RA_OF_ASC_NODE":98.4077,"ARG_OF_PERICENTER":91.2102,"MEAN_ANOMALY":268.9072,"EPHEMERIS_TYPE":0,"CLASSIFICATION_TYPE":"U","NORAD_CAT_ID":47376,"ELEMENT_SET_NO":999,"REV_AT_EPOCH":28180,"BSTAR":0.00010902,"MEAN_MOTION_DOT":1.343e-5,"MEAN_MOTION_DDOT":0},{"OBJECT_NAME":"STARLINK-2097","OBJECT_ID":"2021-005AE","EPOCH":"2026-03-01T11:31:31.793376","MEAN_MOTION":15.06393673,"ECCENTRICITY":0.0001354,"INCLINATION":53.0541,"RA_OF_ASC_NODE":98.4739,"ARG_OF_PERICENTER":86.0627,"MEAN_ANOMALY":274.0517,"EPHEMERIS_TYPE":0,"CLASSIFICATION_TYPE":"U","NORAD_CAT_ID":47377,"ELEMENT_SET_NO":999,"REV_AT_EPOCH":28180,"BSTAR":0.00025586,"MEAN_MOTION_DOT":3.531e-5,"MEAN_MOTION_DDOT":0},{"OBJECT_NAME":"STARLINK-2098","OBJECT_ID":"2021-005AF","EPOCH":"2026-03-01T05:57:22.514400","MEAN_MOTION":15.30206172,"ECCENTRICITY":0.0001483,"INCLINATION":53.1594,"RA_OF_ASC_NODE":53.3742,"ARG_OF_PERICENTER":89.9599,"MEAN_ANOMALY":270.1572,"EPHEMERIS_TYPE":0,"CLASSIFICATION_TYPE":"U","NORAD_CAT_ID":47378,"ELEMENT_SET_NO":999,"REV_AT_EPOCH":28242,"BSTAR":8.2152e-5,"MEAN_MOTION_DOT":2.075e-5,"MEAN_MOTION_DDOT":0},{"OBJECT_NAME":"STARLINK-2099","OBJECT_ID":"2021-005AG","EPOCH":"2026-03-01T09:18:59.139072","MEAN_MOTION":15.3021085,"ECCENTRICITY":0.0001337,"INCLINATION":53.1607,"RA_OF_ASC_NODE":52.0962,"ARG_OF_PERICENTER":109.5552,"MEAN_ANOMALY":250.5593,"EPHEMERIS_TYPE":0,"CLASSIFICATION_TYPE":"U","NORAD_CAT_ID":47379,"ELEMENT_SET_NO":999,"REV_AT_EPOCH":28245,"BSTAR":0.00020091,"MEAN_MOTION_DOT":5.598e-5,"MEAN_MOTION_DDOT":0},{"OBJECT_NAME":"STARLINK-2100","OBJECT_ID":"2021-005AH","EPOCH":"2026-03-01T05:50:30.657696","MEAN_MOTION":15.06404411,"ECCENTRICITY":0.0001502,"INCLINATION":53.0556,"RA_OF_ASC_NODE":69.5363,"ARG_OF_PERICENTER":91.5825,"MEAN_ANOMALY":268.5336,"EPHEMERIS_TYPE":0,"CLASSIFICATION_TYPE":"U","NORAD_CAT_ID":47380,"ELEMENT_SET_NO":999,"REV_AT_EPOCH":28219,"BSTAR":0.00012103,"MEAN_MOTION_DOT":1.522e-5,"MEAN_MOTION_DDOT":0},{"OBJECT_NAME":"STARLINK-2101","OBJECT_ID":"2021-005AJ","EPOCH":"2026-03-01T07:49:17.270976","MEAN_MOTION":15.06393518,"ECCENTRICITY":0.0001385,"INCLINATION":53.0549,"RA_OF_ASC_NODE":74.253,"ARG_OF_PERICENTER":91.3572,"MEAN_ANOMALY":268.7576,"EPHEMERIS_TYPE":0,"CLASSIFICATION_TYPE":"U","NORAD_CAT_ID":47381,"ELEMENT_SET_NO":999,"REV_AT_EPOCH":28213,"BSTAR":6.8722e-5,"MEAN_MOTION_DOT":7.42e-6,"MEAN_MOTION_DDOT":0},{"OBJECT_NAME":"STARLINK-2102","OBJECT_ID":"2021-005AK","EPOCH":"2026-03-01T07:38:12.098112","MEAN_MOTION":15.30204524,"ECCENTRICITY":0.0001399,"INCLINATION":53.1618,"RA_OF_ASC_NODE":65.4365,"ARG_OF_PERICENTER":95.4325,"MEAN_ANOMALY":264.6836,"EPHEMERIS_TYPE":0,"CLASSIFICATION_TYPE":"U","NORAD_CAT_ID":47382,"ELEMENT_SET_NO":999,"REV_AT_EPOCH":28225,"BSTAR":4.5467e-5,"MEAN_MOTION_DOT":9.88e-6,"MEAN_MOTION_DDOT":0},{"OBJECT_NAME":"STARLINK-2103","OBJECT_ID":"2021-005AL","EPOCH":"2026-03-01T05:58:39.626400","MEAN_MOTION":15.3104491,"ECCENTRICITY":9.22e-5,"INCLINATION":53.16,"RA_OF_ASC_NODE":53.5769,"ARG_OF_PERICENTER":96.4563,"MEAN_ANOMALY":263.6543,"EPHEMERIS_TYPE":0,"CLASSIFICATION_TYPE":"U","NORAD_CAT_ID":47383,"ELEMENT_SET_NO":999,"REV_AT_EPOCH":28242,"BSTAR":0.00055108,"MEAN_MOTION_DOT":0.0001643,"MEAN_MOTION_DDOT":0},{"OBJECT_NAME":"STARLINK-2104","OBJECT_ID":"2021-005AM","EPOCH":"2026-03-01T06:54:14.024448","MEAN_MOTION":15.06412115,"ECCENTRICITY":0.00015,"INCLINATION":53.0537,"RA_OF_ASC_NODE":69.5773,"ARG_OF_PERICENTER":90.7141,"MEAN_ANOMALY":269.402,"EPHEMERIS_TYPE":0,"CLASSIFICATION_TYPE":"U","NORAD_CAT_ID":47384,"ELEMENT_SET_NO":999,"REV_AT_EPOCH":28219,"BSTAR":0.00014685,"MEAN_MOTION_DOT":1.907e-5,"MEAN_MOTION_DDOT":0},{"OBJECT_NAME":"STARLINK-2105","OBJECT_ID":"2021-005AN","EPOCH":"2026-03-01T09:59:58.560000","MEAN_MOTION":15.06395887,"ECCENTRICITY":0.0001373,"INCLINATION":53.0544,"RA_OF_ASC_NODE":68.7574,"ARG_OF_PERICENTER":85.9676,"MEAN_ANOMALY":274.147,"EPHEMERIS_TYPE":0,"CLASSIFICATION_TYPE":"U","NORAD_CAT_ID":47385,"ELEMENT_SET_NO":999,"REV_AT_EPOCH":28221,"BSTAR":0.00014235,"MEAN_MOTION_DOT":1.839e-5,"MEAN_MOTION_DDOT":0},{"OBJECT_NAME":"STARLINK-2106","OBJECT_ID":"2021-005AP","EPOCH":"2026-03-01T05:55:49.121184","MEAN_MOTION":15.06395566,"ECCENTRICITY":0.000134,"INCLINATION":53.0552,"RA_OF_ASC_NODE":69.519,"ARG_OF_PERICENTER":94.48,"MEAN_ANOMALY":265.6342,"EPHEMERIS_TYPE":0,"CLASSIFICATION_TYPE":"U","NORAD_CAT_ID":47386,"ELEMENT_SET_NO":999,"REV_AT_EPOCH":28219,"BSTAR":-8.4915e-5,"MEAN_MOTION_DOT":-1.546e-5,"MEAN_MOTION_DDOT":0},{"OBJECT_NAME":"STARLINK-2109","OBJECT_ID":"2021-005AR","EPOCH":"2026-03-01T09:08:13.761312","MEAN_MOTION":15.06398865,"ECCENTRICITY":0.0001293,"INCLINATION":53.0543,"RA_OF_ASC_NODE":98.9212,"ARG_OF_PERICENTER":86.2161,"MEAN_ANOMALY":273.8975,"EPHEMERIS_TYPE":0,"CLASSIFICATION_TYPE":"U","NORAD_CAT_ID":47388,"ELEMENT_SET_NO":999,"REV_AT_EPOCH":28178,"BSTAR":-1.6843e-5,"MEAN_MOTION_DOT":-5.32e-6,"MEAN_MOTION_DDOT":0},{"OBJECT_NAME":"STARLINK-2110","OBJECT_ID":"2021-005AS","EPOCH":"2026-03-01T12:00:02.998944","MEAN_MOTION":15.30172248,"ECCENTRICITY":0.0001336,"INCLINATION":53.1581,"RA_OF_ASC_NODE":74.8019,"ARG_OF_PERICENTER":83.1596,"MEAN_ANOMALY":129.741,"EPHEMERIS_TYPE":0,"CLASSIFICATION_TYPE":"U","NORAD_CAT_ID":47389,"ELEMENT_SET_NO":999,"REV_AT_EPOCH":583,"BSTAR":0.0022861,"MEAN_MOTION_DOT":0.0006791,"MEAN_MOTION_DDOT":0},{"OBJECT_NAME":"STARLINK-2111","OBJECT_ID":"2021-005AT","EPOCH":"2026-03-01T10:06:36.586656","MEAN_MOTION":15.06402811,"ECCENTRICITY":0.0001352,"INCLINATION":53.0548,"RA_OF_ASC_NODE":98.7381,"ARG_OF_PERICENTER":89.4007,"MEAN_ANOMALY":270.7136,"EPHEMERIS_TYPE":0,"CLASSIFICATION_TYPE":"U","NORAD_CAT_ID":47390,"ELEMENT_SET_NO":999,"REV_AT_EPOCH":28179,"BSTAR":5.4815e-5,"MEAN_MOTION_DOT":5.35e-6,"MEAN_MOTION_DDOT":0},{"OBJECT_NAME":"STARLINK-2112","OBJECT_ID":"2021-005AU","EPOCH":"2026-03-01T10:19:49.958976","MEAN_MOTION":15.06404163,"ECCENTRICITY":0.0001591,"INCLINATION":53.055,"RA_OF_ASC_NODE":68.6965,"ARG_OF_PERICENTER":126.0804,"MEAN_ANOMALY":234.0333,"EPHEMERIS_TYPE":0,"CLASSIFICATION_TYPE":"U","NORAD_CAT_ID":47391,"ELEMENT_SET_NO":999,"REV_AT_EPOCH":28221,"BSTAR":-8.8557e-5,"MEAN_MOTION_DOT":-1.6e-5,"MEAN_MOTION_DDOT":0},{"OBJECT_NAME":"STARLINK-2113","OBJECT_ID":"2021-005AV","EPOCH":"2026-03-01T11:19:31.600128","MEAN_MOTION":15.55906248,"ECCENTRICITY":0.0004404,"INCLINATION":53.0532,"RA_OF_ASC_NODE":56.2175,"ARG_OF_PERICENTER":73.3248,"MEAN_ANOMALY":286.8246,"EPHEMERIS_TYPE":0,"CLASSIFICATION_TYPE":"U","NORAD_CAT_ID":47392,"ELEMENT_SET_NO":999,"REV_AT_EPOCH":28239,"BSTAR":0.0016136,"MEAN_MOTION_DOT":0.00115077,"MEAN_MOTION_DDOT":0},{"OBJECT_NAME":"STARLINK-2114","OBJECT_ID":"2021-005AW","EPOCH":"2026-03-01T12:00:02.998944","MEAN_MOTION":15.56998354,"ECCENTRICITY":0.0004158,"INCLINATION":53.0468,"RA_OF_ASC_NODE":23.9435,"ARG_OF_PERICENTER":73.3947,"MEAN_ANOMALY":155.8224,"EPHEMERIS_TYPE":0,"CLASSIFICATION_TYPE":"U","NORAD_CAT_ID":47393,"ELEMENT_SET_NO":999,"REV_AT_EPOCH":589,"BSTAR":0.014349,"MEAN_MOTION_DOT":0.01152611,"MEAN_MOTION_DDOT":0},{"OBJECT_NAME":"STARLINK-2119","OBJECT_ID":"2021-005BA","EPOCH":"2026-03-01T10:49:04.073376","MEAN_MOTION":15.06403314,"ECCENTRICITY":0.0001342,"INCLINATION":53.0544,"RA_OF_ASC_NODE":98.6054,"ARG_OF_PERICENTER":92.3909,"MEAN_ANOMALY":267.7234,"EPHEMERIS_TYPE":0,"CLASSIFICATION_TYPE":"U","NORAD_CAT_ID":47397,"ELEMENT_SET_NO":999,"REV_AT_EPOCH":28180,"BSTAR":8.1915e-5,"MEAN_MOTION_DOT":9.39e-6,"MEAN_MOTION_DDOT":0},{"OBJECT_NAME":"STARLINK-2121","OBJECT_ID":"2021-005BC","EPOCH":"2026-03-01T08:00:52.968960","MEAN_MOTION":15.3020024,"ECCENTRICITY":0.0001396,"INCLINATION":53.1602,"RA_OF_ASC_NODE":75.5174,"ARG_OF_PERICENTER":96.3688,"MEAN_ANOMALY":263.7472,"EPHEMERIS_TYPE":0,"CLASSIFICATION_TYPE":"U","NORAD_CAT_ID":47399,"ELEMENT_SET_NO":999,"REV_AT_EPOCH":28211,"BSTAR":0.00010935,"MEAN_MOTION_DOT":2.881e-5,"MEAN_MOTION_DDOT":0}]
